[{"OBJECT_NAME":"FENGYUN 3C","OBJECT_ID":"2013-052A","EPOCH":"2026-03-09T23:00:17.582976","MEAN_MOTION":14.15729116,"ECCENTRICITY":0.00138136,"INCLINATION":98.4893,"RA_OF_ASC_NODE":47.4396,"ARG_OF_PERICENTER":312.3692,"MEAN_ANOMALY":47.6312,"EPHEMERIS_TYPE":0,"CLASSIFICATION_TYPE":"U","NORAD_CAT_ID":39260,"ELEMENT_SET_NO":999,"REV_AT_EPOCH":64452,"BSTAR":0.00010509622,"MEAN_MOTION_DOT":1.65e-6,"MEAN_MOTION_DDOT":0},{"OBJECT_NAME":"METEOR 2-4","OBJECT_ID":"1979-021A","EPOCH":"2026-03-09T23:17:15.100224","MEAN_MOTION":14.12317661,"ECCENTRICITY":0.00232431,"INCLINATION":81.2146,"RA_OF_ASC_NODE":235.2929,"ARG_OF_PERICENTER":215.857,"MEAN_ANOMALY":144.1043,"EPHEMERIS_TYPE":0,"CLASSIFICATION_TYPE":"U","NORAD_CAT_ID":11288,"ELEMENT_SET_NO":999,"REV_AT_EPOCH":42101,"BSTAR":4.0703906e-5,"MEAN_MOTION_DOT":8.8e-7,"MEAN_MOTION_DDOT":0}]
